MEAN_MOTION;ECCENTRICITY;INCLINATION;RA_OF_ASC_NODE;ARG_OF_PERICENTER;MEAN_ANOMALY;BSTAR;MEAN_MOTION_DOT;MEAN_MOTION_DDOT;TYPE
14.52465578;0.0004493;98.0888;143.1793;99.2582;260.9123;1.2901E-5;1.0E-7;0;Amateur
14.52465614;0.0004495;98.0887;143.5778;98.4084;261.7622;1.252E-5;8.0E-8;0;Amateur
14.5246567;0.0004509;98.0885;144.1754;97.0948;263.0762;1.2666E-5;9.0E-8;0;Amateur
14.52465725;0.0004521;98.0884;144.6403;96.0416;264.1296;1.3278E-5;1.2E-7;0;Amateur
14.52465738;0.0004514;98.0883;145.1052;94.9473;265.2239;1.2877E-5;1.0E-7;0;Amateur
14.52465741;0.0004518;98.0882;145.5037;94.1061;266.0652;1.1598E-5;5.0E-8;0;Amateur
14.5246582;0.0004519;98.088;146.4335;92.0457;268.1257;1.2263E-5;7.0E-8;0;Amateur
14.52465866;0.000452;98.0879;146.8983;91.0206;269.1508;1.3024E-5;1.1E-7;0;Amateur
14.52465797;0.0004514;98.0878;147.8945;88.763;271.4084;9.5093E-6;-4.0E-8;0;Amateur
14.52465823;0.0004507;98.0875;148.957;86.1937;273.9775;9.2725E-6;-5.0E-8;0;Amateur
14.52465839;0.0004495;98.0875;149.0898;85.8954;274.2755;9.914E-6;-2.0E-8;0;Amateur
14.52465872;0.0004473;98.0873;149.953;83.9562;276.2143;8.6806E-6;-7.0E-8;0;Amateur
14.52465874;0.0004443;98.0871;150.8826;81.821;278.349;7.3778E-6;-1.2E-7;0;Amateur
14.52465888;0.0004437;98.087;151.281;80.9331;279.2367;7.1168E-6;-1.4E-7;0;Amateur
14.52465884;0.0004413;98.0869;151.8786;79.6029;280.5664;6.0125E-6;-1.8E-7;0;Amateur
14.52465899;0.0004404;98.0869;152.2772;78.6817;281.4874;5.6891E-6;-1.9E-7;0;Amateur
14.52465917;0.0004401;98.0868;152.8748;77.3573;282.8115;6.038E-6;-1.8E-7;0;Amateur
14.52465927;0.0004393;98.0867;153.2732;76.4348;283.7338;5.2234E-6;-2.1E-7;0;Amateur
14.5246593;0.0004377;98.0866;153.8044;75.115;285.053;4.3344E-6;-2.5E-7;0;Amateur
14.5246597;0.000436;98.0866;154.2028;74.164;286.0036;5.0483E-6;-2.2E-7;0;Amateur
14.52465996;0.0004346;98.0865;154.734;72.93;287.2372;5.6223E-6;-2.0E-7;0;Amateur
14.52466093;0.0004324;98.0864;155.1323;72.0778;288.089;8.4114E-6;-8.0E-8;0;Amateur
14.52466104;0.0004308;98.0863;155.7299;70.7168;289.4494;7.6892E-6;-1.1E-7;0;Amateur
14.52466163;0.0004282;98.0863;156.1283;69.787;290.3787;8.6941E-6;-7.0E-8;0;Amateur
14.52466214;0.0004268;98.0862;156.6594;68.7378;291.4274;9.4323E-6;-4.0E-8;0;Amateur
14.52466366;0.0004237;98.086;157.6553;66.452;293.7121;1.2143E-5;7.0E-8;0;Amateur
14.52466521;0.0004195;98.0859;158.5848;64.2243;295.9386;1.4714E-5;1.7E-7;0;Amateur
14.52466714;0.0004142;98.0858;159.5807;61.7628;298.3986;1.7113E-5;2.7E-7;0;Amateur
14.52466865;0.0004111;98.0856;160.3774;59.9796;300.1807;1.8484E-5;3.3E-7;0;Amateur
14.52466866;0.0004107;98.0856;160.5101;59.6493;300.5109;1.8086E-5;3.1E-7;0;Amateur
14.52466956;0.000408;98.0855;161.0413;58.3182;301.8412;1.8628E-5;3.3E-7;0;Amateur
14.52467163;0.0004034;98.0853;161.9043;56.2169;303.9411;2.0372E-5;4.1E-7;0;Amateur
14.52467295;0.0004017;98.0852;162.4355;55.0489;305.1084;2.1548E-5;4.5E-7;0;Amateur
14.52467376;0.0003993;98.0851;162.8338;54.0918;306.0648;2.171E-5;4.6E-7;0;Amateur
14.52467523;0.0003975;98.085;163.4312;52.7543;307.4015;2.2344E-5;4.9E-7;0;Amateur
14.52467755;0.0003917;98.0849;164.2279;50.8909;309.2635;2.379E-5;5.4E-7;0;Amateur
14.52467785;0.0003913;98.0849;164.3607;50.5935;309.5607;2.3791E-5;5.4E-7;0;Amateur
14.52467836;0.0003891;98.0848;164.6926;49.7894;310.3642;2.314E-5;5.2E-7;0;Amateur
14.52468036;0.0003863;98.0847;165.3565;48.1512;312.0014;2.3946E-5;5.5E-7;0;Amateur
14.52468149;0.0003838;98.0847;165.7548;47.1486;313.0033;2.4047E-5;5.6E-7;0;Amateur
14.52468273;0.0003811;98.0846;166.2858;45.8627;314.2883;2.3593E-5;5.4E-7;0;Amateur
14.5246849;0.000375;98.0845;167.2816;43.4043;316.7448;2.2509E-5;4.9E-7;0;Amateur
14.52468613;0.0003723;98.0844;167.6799;42.3855;317.7628;2.2866E-5;5.1E-7;0;Amateur
14.524688;0.000367;98.0843;168.6092;40.0651;320.0815;2.1259E-5;4.4E-7;0;Amateur
14.52468961;0.000363;98.0842;169.2066;38.6345;321.5111;2.1959E-5;4.7E-7;0;Amateur
14.5246906;0.0003597;98.0841;169.6049;37.5847;322.5601;2.1631E-5;4.6E-7;0;Amateur
14.52469182;0.0003569;98.084;170.136;36.2697;323.8741;2.1402E-5;4.5E-7;0;Amateur
14.52469292;0.0003529;98.0839;170.667;34.8531;325.2896;2.1235E-5;4.4E-7;0;Amateur
14.52469423;0.0003509;98.0839;171.1317;33.8655;326.2764;2.2097E-5;4.8E-7;0;Amateur
14.52469638;0.0003442;98.0837;172.1274;31.2549;328.8851;2.1722E-5;4.6E-7;0;Amateur
14.52469798;0.0003375;98.0835;173.0567;28.8935;331.2448;2.1086E-5;4.3E-7;0;Amateur
14.52469908;0.0003315;98.0833;174.0523;26.3565;333.7799;1.8433E-5;3.3E-7;0;Amateur
14.52470038;0.0003245;98.0831;174.9815;23.8683;336.2663;1.8229E-5;3.2E-7;0;Amateur
14.52470182;0.0003168;98.083;175.9108;21.1686;338.9641;1.7765E-5;3.0E-7;0;Amateur
14.52470189;0.0003165;98.083;175.9771;20.9457;339.1868;1.7946E-5;3.1E-7;0;Amateur
14.52470334;0.0003096;98.0829;176.9063;18.379;341.7518;1.8563E-5;3.3E-7;0;Amateur
14.52470491;0.0003026;98.0827;177.9019;15.2981;344.8306;1.8789E-5;3.4E-7;0;Amateur
14.52470607;0.0002953;98.0826;178.8311;12.4249;347.702;1.84E-5;3.3E-7;0;Amateur
14.5247063;0.0002927;98.0825;179.2293;11.3022;348.8239;1.6879E-5;2.6E-7;0;Amateur
14.52470659;0.0002886;98.0825;179.8266;9.3502;350.7748;1.5017E-5;1.9E-7;0;Amateur
14.5247071;0.0002851;98.0824;180.2248;7.9558;352.1683;1.4686E-5;1.7E-7;0;Amateur
14.52470708;0.0002815;98.0823;180.7557;6.249;353.8741;1.2919E-5;1.0E-7;0;Amateur
14.52470749;0.0002784;98.0823;181.154;4.8717;355.2506;1.2733E-5;9.0E-8;0;Amateur
14.52470844;0.0002714;98.0822;182.1494;1.5079;358.6125;1.2248E-5;7.0E-8;0;Amateur
14.52470894;0.000267;98.0821;182.7467;359.4256;0.6936;1.2564E-5;9.0E-8;0;Amateur
14.52470983;0.0002605;98.0819;183.6758;356.1298;3.9878;1.244E-5;8.0E-8;0;Amateur
14.52471061;0.0002538;98.0818;184.6048;352.7815;7.3345;1.2594E-5;9.0E-8;0;Amateur
14.52471106;0.0002507;98.0818;185.0029;351.3482;8.7671;1.3189E-5;1.1E-7;0;Amateur
14.52471155;0.0002466;98.0817;185.6002;349.1946;10.9197;1.3074E-5;1.1E-7;0;Amateur
14.52471214;0.0002439;98.0817;185.9984;347.6463;12.4673;1.3845E-5;1.4E-7;0;Amateur
14.52471255;0.0002404;98.0816;186.4627;346.1131;13.9999;1.399E-5;1.5E-7;0;Amateur
14.52471388;0.000232;98.0814;187.5245;342.0263;18.0851;1.5229E-5;2.0E-7;0;Amateur
14.52471563;0.0002274;98.0814;188.4536;338.4997;21.6103;1.8136E-5;3.1E-7;0;Amateur
14.52471616;0.0002249;98.0813;188.8518;336.8484;23.2611;1.8307E-5;3.2E-7;0;Amateur
14.52471658;0.000225;98.0813;188.9182;336.5646;23.5447;1.937E-5;3.7E-7;0;Amateur
14.52471758;0.0002215;98.0813;189.4491;334.4155;25.6931;2.0333E-5;4.0E-7;0;Amateur
14.52471836;0.000219;98.0812;189.8472;332.6906;27.4175;2.0739E-5;4.2E-7;0;Amateur
14.52471929;0.0002161;98.0812;190.2453;331.1904;28.9173;2.1915E-5;4.7E-7;0;Amateur
14.5247195;0.0002153;98.0812;190.3781;330.6719;29.4356;2.2005E-5;4.7E-7;0;Amateur
14.52472047;0.000213;98.0811;190.7762;328.7969;31.31;2.289E-5;5.1E-7;0;Amateur
14.52472192;0.0002089;98.0811;191.3734;326.3085;33.7978;2.3934E-5;5.5E-7;0;Amateur
14.52472444;0.0002038;98.081;192.3024;322.262;37.8433;2.5535E-5;6.2E-7;0;Amateur
14.52472538;0.0002016;98.0809;192.7006;320.242;39.8628;2.5595E-5;6.2E-7;0;Amateur
14.52472695;0.0001976;98.0809;193.2978;317.4825;42.6218;2.5935E-5;6.3E-7;0;Amateur
14.52472864;0.000197;98.0808;193.6959;315.3433;44.7604;2.7752E-5;7.1E-7;0;Amateur
14.52473015;0.0001937;98.0808;194.2267;312.9243;47.179;2.7952E-5;7.2E-7;0;Amateur
14.52473172;0.0001923;98.0808;194.6912;310.3465;49.7563;2.8535E-5;7.4E-7;0;Amateur
14.52473589;0.0001844;98.0807;196.0848;303.4947;56.6073;2.848E-5;7.4E-7;0;Amateur
14.52473857;0.0001799;98.0806;197.1465;297.5817;62.5196;2.6989E-5;6.8E-7;0;Amateur
14.52474119;0.0001776;98.0805;197.9427;293.2332;66.8677;2.7468E-5;7.0E-7;0;Amateur
14.52474232;0.0001771;98.0804;198.1417;292.3653;67.7355;3.0144E-5;8.0E-7;0;Amateur
14.52474396;0.0001763;98.0804;198.6062;289.7702;70.3305;3.1011E-5;8.4E-7;0;Amateur
14.52474458;0.0001749;98.0803;199.0707;287.1359;72.9646;2.7899E-5;7.1E-7;0;Amateur
14.52474567;0.0001741;98.0803;199.4688;284.9006;75.1997;2.7312E-5;6.9E-7;0;Amateur
14.52474744;0.0001726;98.0802;200.0659;281.6761;78.4242;2.7893E-5;7.1E-7;0;Amateur
14.52474929;0.0001732;98.0802;200.4641;278.9981;81.1019;3.0365E-5;8.1E-7;0;Amateur
14.52475109;0.0001721;98.0801;200.9949;275.9519;84.1481;3.1576E-5;8.6E-7;0;Amateur
14.52475361;0.0001721;98.08;201.9238;270.5793;89.5206;3.0068E-5;8.0E-7;0;Amateur
14.52475594;0.0001724;98.0799;202.919;264.6774;95.4225;2.8348E-5;7.3E-7;0;Amateur
14.52475859;0.0001737;98.0798;203.9142;258.952;101.1481;2.7815E-5;7.1E-7;0;Amateur
14.5247609;0.0001765;98.0797;204.843;253.7573;106.3429;2.706E-5;6.8E-7;0;Amateur
14.52476158;0.0001775;98.0797;205.1748;251.8758;108.2245;2.6287E-5;6.5E-7;0;Amateur
14.52476334;0.0001791;98.0796;205.8382;248.2258;111.8748;2.6033E-5;6.4E-7;0;Amateur
14.52476414;0.0001804;98.0796;206.1699;246.4619;113.6388;2.5804E-5;6.3E-7;0;Amateur
14.5247649;0.0001817;98.0796;206.3026;245.7287;114.372;2.7293E-5;6.9E-7;0;Amateur
14.52476597;0.0001831;98.0796;206.7671;243.275;116.8259;2.713E-5;6.8E-7;0;Amateur
14.52476682;0.0001853;98.0795;207.1652;241.104;118.9971;2.6197E-5;6.4E-7;0;Amateur
14.52476837;0.0001876;98.0795;207.7623;238.153;121.9484;2.6446E-5;6.5E-7;0;Amateur
14.52476927;0.0001902;98.0794;208.2267;235.792;124.3096;2.5384E-5;6.1E-7;0;Amateur
14.52477038;0.0001919;98.0794;208.6247;233.7651;126.3368;2.6098E-5;6.4E-7;0;Amateur
14.5247723;0.0001969;98.0793;209.6199;229.0869;131.0157;2.4292E-5;5.7E-7;0;Amateur
14.52477237;0.0001972;98.0793;209.6862;228.8023;131.3003;2.4188E-5;5.6E-7;0;Amateur
14.52477422;0.0002025;98.0792;210.615;224.382;135.7214;2.3954E-5;5.5E-7;0;Amateur
14.52477584;0.0002095;98.0791;211.6101;219.9586;140.1457;2.2158E-5;4.8E-7;0;Amateur
14.52477772;0.0002158;98.079;212.5389;215.9039;144.2012;2.281E-5;5.1E-7;0;Amateur
14.52477857;0.0002191;98.079;212.9369;214.3858;145.7197;2.2916E-5;5.1E-7;0;Amateur
14.52477993;0.0002234;98.079;213.5339;211.9412;148.1649;2.4003E-5;5.5E-7;0;Amateur
14.5247809;0.0002261;98.0789;213.9319;210.3882;149.7183;2.4838E-5;5.9E-7;0;Amateur
14.52478421;0.0002379;98.0788;215.4577;204.5104;155.598;2.6962E-5;6.8E-7;0;Amateur
